ONEWEB-0620             
1 55161U 23004X   25300.43306359  .00000445  00000+0  12192-2 0  9999
2 55161  87.8833  67.4374 0001803  95.3738 264.7595 13.11416542135325
ONEWEB-0621             
1 55162U 23004Y   25300.38389250 -.00000535  00000+0 -15453-2 0  9990
2 55162  87.8844  67.4123 0001374  95.0978 265.0307 13.11415706135298
ONEWEB-0622             
1 55163U 23004Z   25300.38898329 -.00000456  00000+0 -13228-2 0  9993
2 55163  87.8834  67.4260 0001712  71.6144 288.5170 13.11418527135282
ONEWEB-0623             
1 55164U 23004AA  25300.34974133  .00000093  00000+0  20615-3 0  9992
2 55164  87.9116  52.1871 0001301  73.9897 286.1378 13.17651391136920
ONEWEB-0624             
1 55165U 23004AB  25300.52802222 -.00000361  00000+0 -10319-2 0  9991
2 55165  87.8963  36.8523 0001518  94.6260 265.5042 13.12916985137543
ONEWEB-0625             
1 55166U 23004AC  25300.26366579  .00000069  00000+0  14409-3 0  9991
2 55166  87.9114  52.2000 0001693 105.5955 254.5364 13.17649371136903
ONEWEB-0626             
1 55167U 23004AD  25300.25355691  .00000075  00000+0  15957-3 0  9990
2 55167  87.9117  52.2013 0002230  99.3020 260.8363 13.17649933136905
ONEWEB-0627             
1 55168U 23004AE  25300.54548470  .00000108  00000+0  24481-3 0  9991
2 55168  87.9116  52.1443 0001507  81.1728 278.9574 13.17650957136947
